KUIPER-00259            
1 67786U 26030Y   26062.91331877  .00037812  00000+0  11082-2 0  9994
2 67786  51.8805 247.1000 0008206  32.9642 327.1854 15.34806951  4207
KUIPER-00260            
1 67787U 26030Z   26062.89602205  .00042186  00000+0  11822-2 0  9990
2 67787  51.8797 246.9877 0000900  57.8821 302.2252 15.36188637  4117
KUIPER-00262            
1 67788U 26030AA  26062.89281213  .00042275  00000+0  11729-2 0  9998
2 67788  51.8812 246.9707 0000415 138.4862 221.6156 15.36500811  4209
KUIPER-00266            
1 67789U 26030AB  26062.95174908  .00015684  00000+0  52436-3 0  9993
2 67789  51.8809 247.3429 0022860  56.0866 304.2288 15.30928027  4200
KUIPER-00268            
1 67790U 26030AC  26062.90071897  .00037695  00000+0  10736-2 0  9995
2 67790  51.8845 247.0263 0002363  33.1867 326.9267 15.35732539  4202
KUIPER-00270            
1 67791U 26030AD  26062.91831509  .00030193  00000+0  89975-3 0  9999
2 67791  51.8800 247.1311 0009975  40.3826 319.7899 15.34378204  4205
KUIPER-00274            
1 67792U 26030AE  26062.94148845  .00017452  00000+0  57193-3 0  9997
2 67792  51.8814 247.2850 0017549  53.2401 307.0192 15.31590430  4208
KUIPER-00275            
1 67793U 26030AF  26062.91577182  .00030012  00000+0  89266-3 0  9998
2 67793  51.8833 247.1233 0008765  37.5800 322.5797 15.34452314  4206
KUIPER-00276            
1 67794U 26030AG  26062.94542709  .00000120  00000+0  16097-4 0  9999
2 67794  51.8812 247.3083 0018725  51.1114 309.1537 15.31384505  4202
KUIPER-00279            
1 67795U 26030AH  26062.90966034  .00039460  00000+0  11450-2 0  9992
2 67795  51.8796 247.0744 0006422  31.4016 328.7352 15.35113105  4200
CREW DRAGON 12          
1 67796U 26031A   26062.89864036  .00010104  00000+0  19499-3 0  9997
2 67796  51.6318 100.9868 0008208 154.1881 205.9518 15.48428601555340
STARLINK-36800          
1 67797U 26032A   26062.97603815  .00122246  00000+0  80747-3 0  9999
2 67797  97.2835 249.1768 0001427  95.0786 265.0642 15.75227482  3885
STARLINK-36798          
1 67798U 26032B   26062.96088019 -.00858462  00000+0 -52710-2 0  9998
2 67798  97.2833 249.1977 0001119 105.8355 254.3036 15.79402785  3889
STARLINK-36804          
1 67799U 26032C   26062.97427383  .00112320  00000+0  74274-3 0  9995
2 67799  97.2836 249.1794 0001649  85.0031 275.1423 15.75230304  3881
STARLINK-36354          
1 67800U 26032D   26062.75002315  .00023029  00000+0  15513-3 0  9996
2 67800  97.2843 248.9719 0001622  95.1546 136.1584 15.75147265  3821
STARLINK-36773          
1 67801U 26032E   26062.75002315 -.00030042  00000+0 -20124-3 0  9996
2 67801  97.2838 248.9523 0001548  94.8427  92.4870 15.75190690  3765
